# From MPEC 2022-S20
C/1995 O1 (Hale-Bopp),e,89.5200,282.1914,130.2465,177.6998,0.0004161,0.99497324,0.0000,03/30.6427/1997,2000,g -2.0,4.0
# From NK 1615
P/1996 R2 (Lagerkvist),e,2.5995,40.0562,333.4455,3.773595,0.1344532,0.31448751,263.0024,06/24.0/2024,2000,g 11.5,4.0
# From MPC 75703
P/1998 VS24 (LINEAR),e,5.0283,159.0606,244.7719,4.522243,0.1024881,0.24367467,240.0758,06/24.0/2024,2000,g 13.0,2.0
# From unp
P/1999 D1 (Hermann),e,21.2564,348.7626,173.8455,5.783908,0.0708552,0.71309506,300.5916,06/24.0/2024,2000,g  9.0,4.0
# From unp
P/1999 R1 (SOHO),e,11.4334,351.6385,56.8234,2.508271,0.2481090,0.97998658,0.0000,08/21.0232/2023,2000,g  9.0,4.0
# From NK 731
P/1999 RO28 (LONEOS),e,7.5667,137.8605,231.3356,3.425811,0.1554386,0.67234344,283.3331,06/24.0/2024,2000,g 20.0,2.0
# From MPC 75704
P/1999 XN120 (Catalina),e,5.0295,285.2569,161.6773,4.179467,0.1153514,0.21093471,296.9844,06/24.0/2024,2000,g 13.5,2.0
# From unp
P/2000 QJ46 (LINEAR),e,4.4333,158.1127,222.2609,5.790847,0.0707279,0.67555715,245.0372,06/24.0/2024,2000,g  9.0,4.0
# From NK 744
P/2000 R2 (LINEAR),e,11.6806,160.2863,176.5902,3.468556,0.1525742,0.53081011,279.7082,06/24.0/2024,2000,g 18.0,4.0
# From unp
P/2001 BB50 (LINEAR-NEAT),e,10.3282,351.1558,193.3629,5.750911,0.0714659,0.58596033,257.7545,06/24.0/2024,2000,g 13.0,4.0
# From MPC 43019
P/2001 H5 (NEAT),e,8.3697,328.6489,224.6358,6.095469,0.0654928,0.59854192,208.4400,06/24.0/2024,2000,g 12.0,4.0
# From MPEC 2023-UR6
P/2002 EJ57 (LINEAR),e,4.9845,330.2518,167.2570,6.457214,0.0600671,0.59334500,131.9937,06/24.0/2024,2000,g 12.5,4.0
# From MPC 75007
C/2002 VQ94 (LINEAR),e,70.7017,35.1518,99.8304,185.4712,0.0003902,0.96350487,2.6191,06/24.0/2024,2000,g  9.5,2.0
# From MPC 50354
P/2003 F2 (NEAT),e,11.6540,358.9248,192.4011,6.506233,0.0593895,0.54164128,100.0380,06/24.0/2024,2000,g 16.5,2.0
# From unp
P/2003 L1 (Scotti),e,9.0248,226.0271,354.9347,6.697286,0.0568664,0.25114321,82.1662,06/24.0/2024,2000,g  8.5,4.0
# From MPC 50139
P/2003 QX29 (NEAT),e,11.3988,264.5336,37.6700,8.004461,0.0435217,0.47169349,342.1943,06/24.0/2024,2000,g  8.5,4.0
# From MPC105235
P/2003 T12 (SOHO),e,11.0250,174.5780,219.7862,2.584213,0.2372530,0.77026975,357.6852,06/24.0/2024,2000,g 17.0,4.0
# From unp
P/2003 U3 (NEAT),e,7.0164,347.9362,357.0317,5.042904,0.0870328,0.51067223,306.9457,06/24.0/2024,2000,g 12.0,4.0
# From MPEC 2022-YN2
P/2004 FY140 (LINEAR),e,2.1621,327.2680,254.1184,4.970107,0.0889519,0.19222703,273.4734,06/24.0/2024,2000,g 12.5,2.0
# From unp
P/2004 H2 (Larsen),e,11.7741,131.3745,104.7083,4.527527,0.1023087,0.41688921,33.0711,06/24.0/2024,2000,g  9.0,4.0
# From MPC 53304
P/2004 R3 (LINEAR-NEAT),e,12.7938,305.1240,37.4785,4.752468,0.0951317,0.25441835,96.1266,06/24.0/2024,2000,g 14.5,4.0
# From MPC 75705
P/2004 V5 (LINEAR-Hill),e,19.3471,47.7398,87.3381,8.020627,0.0433902,0.44725313,310.5249,06/24.0/2024,2000,g  8.0,4.0
# From MPC 75705
P/2004 V5-B (LINEAR-Hill),e,19.3471,47.7401,87.3414,8.020994,0.0433872,0.44727572,310.4864,06/24.0/2024,2000,g  8.0,4.0
# From MPC 54164
P/2005 E1 (Tubbiolo),e,4.2614,335.5192,193.8735,7.063390,0.0525030,0.37669365,14.1874,06/24.0/2024,2000,g 10.0,4.0
# From unp
P/2005 GF8 (LONEOS),e,1.1658,312.8548,285.4112,5.757632,0.0713408,0.51400538,124.3100,06/24.0/2024,2000,g  9.0,4.0
# From MPC 79019
P/2005 J1 (McNaught),e,31.7403,268.7997,338.9149,3.573752,0.1458873,0.56913723,304.1620,06/24.0/2024,2000,g 16.5,4.0
# From MPC 74246
P/2005 L1 (McNaught),e,7.7288,134.3750,154.1197,3.998136,0.1232871,0.22798531,116.8065,06/24.0/2024,2000,g  9.5,4.0
# From MPC 75706
P/2005 S2 (Skiff),e,3.1372,161.3517,229.7893,7.991144,0.0436305,0.19884334,286.9707,06/24.0/2024,2000,g  7.5,4.0
# From MPC 75706
P/2005 SB216 (LONEOS),e,24.1094,1.1274,83.2150,7.155246,0.0514953,0.46575250,330.6714,06/24.0/2024,2000,g 12.0,2.0
# From MPC 73461
P/2005 T3 (Read),e,6.2286,27.6438,6.8788,7.583945,0.0471912,0.17527181,323.0117,06/24.0/2024,2000,g  9.0,4.0
# From MPC 73461
P/2005 T4 (SWAN),e,160.2800,25.9247,41.8676,9.353798,0.0344526,0.93025969,235.0631,06/24.0/2024,2000,g 15.0,4.0
# From MPC 75706
P/2005 T5 (Broughton),e,21.3834,57.0683,304.7463,7.266259,0.0503197,0.55220502,342.0969,06/24.0/2024,2000,g 11.0,4.0
# From MPEC 2024-DD5
P/2005 XR132 (Spacewatch),e,14.4756,265.3983,240.7650,3.758285,0.1352756,0.43246171,176.5496,06/24.0/2024,2000,g 16.0,4.0
# From unp
P/2005 Y2 (McNaught),e,19.1417,93.8216,193.3960,6.293046,0.0624328,0.46504160,84.4225,06/24.0/2024,2000,g  9.0,4.0
# From MPEC 2024-JU4
P/2006 AH2 (Sheppard-Tholen),e,10.0163,261.6471,196.0156,6.846861,0.0550132,0.41708178,16.7389,06/24.0/2024,2000,g 13.0,4.0
# From unp
P/2006 F4 (Spacewatch),e,12.4282,183.6044,31.2002,3.490434,0.1511419,0.34982733,267.7882,06/24.0/2024,2000,g  9.0,4.0
# From MPC 75707
P/2006 HR30 (Siding Spring),e,31.9288,309.8007,117.4532,7.801750,0.0452289,0.84364018,289.0850,06/24.0/2024,2000,g 11.0,4.0
# From unp
P/2006 XG16 (Spacewatch),e,9.0627,78.4045,40.9096,3.638787,0.1419937,0.41914807,182.0761,06/24.0/2024,2000,g  9.0,4.0
# From MPC 75707
P/2007 C2 (Catalina),e,8.6122,275.2477,180.1560,7.011160,0.0530908,0.47331052,326.2487,06/24.0/2024,2000,g 10.0,4.0
# From MPC 84315
C/2007 D1 (LINEAR),e,41.5066,171.1331,339.6956,1159,0.0000250,0.99245190,0.0000,06/10.6711/2007,2000,g  3.5,4.0
# From MPEC 2024-GJ3
P/2007 K2 (Gibbs),e,7.6153,188.5803,347.2008,7.332221,0.0496422,0.68553717,312.9606,06/24.0/2024,2000,g 14.0,4.0
# From MPC 60925
P/2007 Q2 (Gilmore),e,10.1983,172.2051,162.8738,5.661058,0.0731741,0.66926075,95.5537,06/24.0/2024,2000,g 16.0,4.0
# From MPC 73462
P/2007 S1 (Zhao),e,5.9645,141.3322,245.2311,3.817396,0.1321457,0.33833449,82.7626,06/24.0/2024,2000,g 13.0,4.0
# From MPEC 2024-GJ3
C/2007 S2 (Lemmon),e,16.9009,296.1178,210.1747,12.50124,0.0222984,0.55596746,128.8591,06/24.0/2024,2000,g  6.5,4.0
# From MPC 61994
P/2007 T2 (Kowalski),e,9.7507,3.3859,359.6715,3.043821,0.1855989,0.78562451,40.7186,06/24.0/2024,2000,g 18.5,4.0
# From MPEC 2024-GJ3
C/2008 E1 (Catalina),e,34.8673,188.9898,270.2681,10.76624,0.0279002,0.55241806,161.5682,06/24.0/2024,2000,g  7.0,4.0
# From MPC 64114
P/2008 O3 (Boattini),e,32.3280,47.6082,341.1900,8.209719,0.0418998,0.69653742,245.3278,06/24.0/2024,2000,g 13.0,4.0
# From MPC 75710
P/2008 Y3 (McNaught),e,38.7788,262.8418,238.0593,8.042503,0.0432133,0.44734620,244.9627,06/24.0/2024,2000,g  8.5,4.0
# From MPC 75710
P/2009 B1 (Boattini),e,22.2561,297.1057,128.9562,6.731294,0.0564360,0.63606820,318.4455,06/24.0/2024,2000,g 13.0,4.0
# From MPC 66466
C/2009 G1 (STEREO),e,108.2154,120.7837,175.5409,466.6932,0.0000978,0.99755484,0.0000,04/18.1128/2009,2000,g  9.0,4.0
# From MPC 75710
P/2009 O3 (Hill),e,16.2689,183.7136,154.4664,7.768630,0.0455184,0.68679510,250.5003,06/24.0/2024,2000,g 12.5,4.0
# From MPC 68902
P/2009 Q5 (McNaught),e,40.9707,160.2527,209.1803,7.425567,0.0487091,0.60969385,262.4674,06/24.0/2024,2000,g 10.0,4.0
# From unp
P/2009 QG31 (La Sagra),e,5.0498,346.1373,5.7332,3.571774,0.1460085,0.39929234,63.0825,06/24.0/2024,2000,g 14.0,4.0
# From MPC112389
P/2009 T2 (La Sagra),e,27.6132,216.3520,215.9370,7.711629,0.0460241,0.76737607,242.9826,06/24.0/2024,2000,g 14.0,4.0
# From MPC105235
P/2009 WX51 (Catalina),e,9.5947,31.5379,118.2699,3.082582,0.1821093,0.73946626,239.7709,06/24.0/2024,2000,g 19.0,2.0
# From MPC 74247
P/2009 Y2 (Kowalski),e,29.9735,262.0854,172.1825,6.543616,0.0588813,0.63741401,307.5572,06/24.0/2024,2000,g 13.0,4.0
# From MPC 75711
P/2010 A3 (Hill),e,14.8190,63.6438,42.2247,6.097771,0.0654557,0.73421125,342.9513,06/24.0/2024,2000,g 14.0,4.0
# From MPC 75008
P/2010 C1 (Scotti),e,9.1165,141.6202,3.0558,7.120890,0.0518684,0.26279894,279.3903,06/24.0/2024,2000,g  9.5,4.0
# From MPC 75008
P/2010 D2 (WISE),e,57.1234,319.8730,119.9521,6.720913,0.0565668,0.45176792,297.2025,06/24.0/2024,2000,g 16.0,4.0
# From MPC 75009
P/2010 E2 (Jarnac),e,15.4045,177.8044,8.2436,8.638165,0.0388215,0.72008246,202.3767,06/24.0/2024,2000,g 14.0,4.0
# From MPC 72851
P/2010 H2 (Vales),e,14.2796,64.1872,128.0512,3.832226,0.1313794,0.19733317,326.0161,06/24.0/2024,2000,g  6.0,4.0
# From MPC 70361
P/2010 H3 (SOHO),e,23.1511,77.1872,26.0593,3.035877,0.1863279,0.98553180,0.0000,05/25.1596/2026,2000,g 20.0,2.0
# From MPEC 2024-GJ3
P/2010 H4 (Scotti),e,2.3178,44.7375,179.1645,6.612951,0.0579577,0.26654256,298.4099,06/24.0/2024,2000,g 10.5,4.0
# From MPC 74637
P/2010 H5 (Scotti),e,14.0568,24.5855,174.5699,7.175548,0.0512769,0.15363905,268.0871,06/24.0/2024,2000,g 13.0,2.0
# From MPC 98558
P/2010 J3 (McMillan),e,13.2353,106.5254,157.4777,8.986363,0.0365871,0.72433237,185.2203,06/24.0/2024,2000,g 11.0,4.0
# From MPC 84315
P/2010 JC81 (WISE),e,38.8080,30.8733,12.4710,8.102983,0.0427304,0.77830135,205.1543,06/24.0/2024,2000,g  9.0,4.0
# From MPEC 2024-H77
A/2010 LN135,e,64.6113,184.7692,181.5493,18501,0.0000004,0.99990592,0.0000,05/25.8329/2011,2000,g 14.0,2.0
# From MPC 74248
P/2010 T2 (PANSTARRS),e,7.8883,57.9534,351.2089,5.640914,0.0735665,0.33019578,8.3675,06/24.0/2024,2000,g 11.5,4.0
# From MPC 82316
P/2010 U1 (Boattini),e,8.2267,280.8055,86.4525,6.491367,0.0595936,0.24887968,311.9133,06/24.0/2024,2000,g  9.5,4.0
# From MPEC 2023-J95
C/2010 U3 (Boattini),e,55.5646,42.9881,88.0510,5919,0.0000022,0.99857454,0.0000,02/26.6933/2019,2000,g  1.0,4.0
# From MPC 79021
P/2010 UH55 (Spacewatch),e,8.0368,232.8767,225.2110,6.651667,0.0574524,0.56453966,277.3087,06/24.0/2024,2000,g 11.0,4.0
# From MPC 75009
P/2010 WK (LINEAR),e,11.4015,11.3432,40.9889,5.766654,0.0711735,0.69093748,358.0579,06/24.0/2024,2000,g 14.5,2.0
# From MPC 84021
P/2011 C2 (Gibbs),e,10.8901,11.9543,160.3048,7.412116,0.0488417,0.27017175,223.9689,06/24.0/2024,2000,g  9.0,4.0
# From MPEC 2013-Y32
P/2011 CR42 (Catalina),e,8.4591,58.7137,172.6708,3.510669,0.1498370,0.27996279,329.7113,06/24.0/2024,2000,g  9.0,4.0
# From MPC 79866
P/2011 FR143 (Lemmon),e,15.9681,190.8640,349.7567,6.874152,0.0546859,0.45188172,267.8234,06/24.0/2024,2000,g 14.0,2.0
# From MPC 82317
